{
  "type": "FeatureCollection",
  "features": [
    {
      "type": "Feature",
      "properties": {
        "norad_id": 38755,
        "name": "SPOT 6",
        "group": "resource",
        "lat": -21.721426790782132,
        "lon": -118.38336655832451,
        "alt_km": 703.6859882675153,
        "timestamp": "2025-12-26T08:37:54.226836+00:00",
        "meta_object_name": "SPOT 6",
        "meta_object_id": "2012-047A",
        "meta_epoch": "2025-12-26T04:24:58.960800",
        "meta_mean_motion": 14.58544281,
        "meta_eccentricity": 0.000121,
        "meta_inclination": 98.1551,
        "meta_ra_of_asc_node": 64.7192,
        "meta_arg_of_pericenter": 78.2923,
        "meta_mean_anomaly": 281.8412,
        "meta_ephemeris_type": 0,
        "meta_classification_type": "U",
        "meta_norad_cat_id": 38755,
        "meta_element_set_no": 999,
        "meta_rev_at_epoch": 70783,
        "meta_bstar": 0.00011112,
        "meta_mean_motion_dot": 4.71e-06,
        "meta_mean_motion_ddot": 0,
        "tle_line1": "1 38755U 12047A   25360.18401575  .00000471  00000+0  11112-3 0  9999",
        "tle_line2": "2 38755  98.1551  64.7192 0001210  78.2923 281.8412 14.58544281707836"
      },
      "geometry": {
        "type": "Point",
        "coordinates": [
          -118.38336655832451,
          -21.721426790782132
        ]
      }
    },
    {
      "type": "Feature",
      "properties": {
        "norad_id": 39019,
        "name": "PLEIADES 1B",
        "group": "resource",
        "lat": 76.82431876915878,
        "lon": -69.30729979566343,
        "alt_km": 689.7873455448098,
        "timestamp": "2025-12-26T08:37:54.226846+00:00",
        "meta_object_name": "PLEIADES 1B",
        "meta_object_id": "2012-068A",
        "meta_epoch": "2025-12-26T04:52:50.107008",
        "meta_mean_motion": 14.58565033,
        "meta_eccentricity": 0.000113,
        "meta_inclination": 98.1775,
        "meta_ra_of_asc_node": 72.6414,
        "meta_arg_of_pericenter": 87.0712,
        "meta_mean_anomaly": 273.0617,
        "meta_ephemeris_type": 0,
        "meta_classification_type": "U",
        "meta_norad_cat_id": 39019,
        "meta_element_set_no": 999,
        "meta_rev_at_epoch": 69563,
        "meta_bstar": 0.00010189,
        "meta_mean_motion_dot": 4.28e-06,
        "meta_mean_motion_ddot": 0,
        "tle_line1": "1 39019U 12068A   25360.20335772  .00000428  00000+0  10189-3 0  9999",
        "tle_line2": "2 39019  98.1775  72.6414 0001130  87.0712 273.0617 14.58565033695630"
      },
      "geometry": {
        "type": "Point",
        "coordinates": [
          -69.30729979566343,
          76.82431876915878
        ]
      }
    },
    {
      "type": "Feature",
      "properties": {
        "norad_id": 39030,
        "name": "GOKTURK 2",
        "group": "resource",
        "lat": 54.04040145249345,
        "lon": -169.38891484807405,
        "alt_km": 638.426373477082,
        "timestamp": "2025-12-26T08:37:54.226856+00:00",
        "meta_object_name": "GOKTURK 2",
        "meta_object_id": "2012-073A",
        "meta_epoch": "2025-12-26T03:30:03.877344",
        "meta_mean_motion": 14.75310526,
        "meta_eccentricity": 0.0001461,
        "meta_inclination": 97.6885,
        "meta_ra_of_asc_node": 201.1398,
        "meta_arg_of_pericenter": 106.0442,
        "meta_mean_anomaly": 254.0929,
        "meta_ephemeris_type": 0,
        "meta_classification_type": "U",
        "meta_norad_cat_id": 39030,
        "meta_element_set_no": 999,
        "meta_rev_at_epoch": 69899,
        "meta_bstar": 0.00015663,
        "meta_mean_motion_dot": 1.014e-05,
        "meta_mean_motion_ddot": 0,
        "tle_line1": "1 39030U 12073A   25360.14587821  .00001014  00000+0  15663-3 0  9999",
        "tle_line2": "2 39030  97.6885 201.1398 0001461 106.0442 254.0929 14.75310526698999"
      },
      "geometry": {
        "type": "Point",
        "coordinates": [
          -169.38891484807405,
          54.04040145249345
        ]
      }
    },
    {
      "type": "Feature",
      "properties": {
        "norad_id": 39084,
        "name": "LANDSAT 8",
        "group": "resource",
        "lat": -19.54145296652426,
        "lon": -114.70464253720073,
        "alt_km": 707.8515349771924,
        "timestamp": "2025-12-26T08:37:54.226866+00:00",
        "meta_object_name": "LANDSAT 8",
        "meta_object_id": "2013-008A",
        "meta_epoch": "2025-12-26T04:25:20.402688",
        "meta_mean_motion": 14.57115634,
        "meta_eccentricity": 0.0001046,
        "meta_inclination": 98.2055,
        "meta_ra_of_asc_node": 68.0583,
        "meta_arg_of_pericenter": 93.4782,
        "meta_mean_anomaly": 266.6536,
        "meta_ephemeris_type": 0,
        "meta_classification_type": "U",
        "meta_norad_cat_id": 39084,
        "meta_element_set_no": 999,
        "meta_rev_at_epoch": 67270,
        "meta_bstar": 9.8606e-05,
        "meta_mean_motion_dot": 3.99e-06,
        "meta_mean_motion_ddot": 0,
        "tle_line1": "1 39084U 13008A   25360.18426392  .00000399  00000+0  98606-4 0  9990",
        "tle_line2": "2 39084  98.2055  68.0583 0001046  93.4782 266.6536 14.57115634672702"
      },
      "geometry": {
        "type": "Point",
        "coordinates": [
          -114.70464253720073,
          -19.54145296652426
        ]
      }
    },
    {
      "type": "Feature",
      "properties": {
        "norad_id": 39086,
        "name": "SARAL",
        "group": "resource",
        "lat": 71.17187987517202,
        "lon": 157.93001834430385,
        "alt_km": 773.530138093065,
        "timestamp": "2025-12-26T08:37:54.226876+00:00",
        "meta_object_name": "SARAL",
        "meta_object_id": "2013-009A",
        "meta_epoch": "2025-12-26T03:15:48.576096",
        "meta_mean_motion": 14.32761541,
        "meta_eccentricity": 0.0002958,
        "meta_inclination": 98.5504,
        "meta_ra_of_asc_node": 183.8915,
        "meta_arg_of_pericenter": 83.297,
        "meta_mean_anomaly": 276.855,
        "meta_ephemeris_type": 0,
        "meta_classification_type": "U",
        "meta_norad_cat_id": 39086,
        "meta_element_set_no": 999,
        "meta_rev_at_epoch": 67082,
        "meta_bstar": 6.082e-05,
        "meta_mean_motion_dot": 1.22e-06,
        "meta_mean_motion_ddot": 0,
        "tle_line1": "1 39086U 13009A   25360.13597889  .00000122  00000+0  60820-4 0  9999",
        "tle_line2": "2 39086  98.5504 183.8915 0002958  83.2970 276.8550 14.32761541670827"
      },
      "geometry": {
        "type": "Point",
        "coordinates": [
          157.93001834430385,
          71.17187987517202
        ]
      }
    },
    {
      "type": "Feature",
      "properties": {
        "norad_id": 39150,
        "name": "GAOFEN-1",
        "group": "resource",
        "lat": -12.88423903927183,
        "lon": -111.05063424624558,
        "alt_km": 645.1309194707928,
        "timestamp": "2025-12-26T08:37:54.226886+00:00",
        "meta_object_name": "GAOFEN-1",
        "meta_object_id": "2013-018A",
        "meta_epoch": "2025-12-26T04:30:35.349696",
        "meta_mean_motion": 14.76503745,
        "meta_eccentricity": 0.0018561,
        "meta_inclination": 97.9307,
        "meta_ra_of_asc_node": 70.608,
        "meta_arg_of_pericenter": 102.3629,
        "meta_mean_anomaly": 257.966,
        "meta_ephemeris_type": 0,
        "meta_classification_type": "U",
        "meta_norad_cat_id": 39150,
        "meta_element_set_no": 999,
        "meta_rev_at_epoch": 68271,
        "meta_bstar": 0.0001448,
        "meta_mean_motion_dot": 9.6e-06,
        "meta_mean_motion_ddot": 0,
        "tle_line1": "1 39150U 13018A   25360.18790914  .00000960  00000+0  14480-3 0  9990",
        "tle_line2": "2 39150  97.9307  70.6080 0018561 102.3629 257.9660 14.76503745682711"
      },
      "geometry": {
        "type": "Point",
        "coordinates": [
          -111.05063424624558,
          -12.88423903927183
        ]
      }
    },
    {
      "type": "Feature",
      "properties": {
        "norad_id": 39160,
        "name": "VNREDSAT 1",
        "group": "resource",
        "lat": 47.33351639799152,
        "lon": 46.45199938444394,
        "alt_km": 672.4113118366758,
        "timestamp": "2025-12-26T08:37:54.226897+00:00",
        "meta_object_name": "VNREDSAT 1",
        "meta_object_id": "2013-021B",
        "meta_epoch": "2025-12-26T03:29:45.075840",
        "meta_mean_motion": 14.64942821,
        "meta_eccentricity": 0.0001148,
        "meta_inclination": 97.935,
        "meta_ra_of_asc_node": 54.9494,
        "meta_arg_of_pericenter": 84.0637,
        "meta_mean_anomaly": 276.0697,
        "meta_ephemeris_type": 0,
        "meta_classification_type": "U",
        "meta_norad_cat_id": 39160,
        "meta_element_set_no": 999,
        "meta_rev_at_epoch": 67495,
        "meta_bstar": 0.00016733,
        "meta_mean_motion_dot": 8.5e-06,
        "meta_mean_motion_ddot": 0,
        "tle_line1": "1 39160U 13021B   25360.14566060  .00000850  00000+0  16733-3 0  9995",
        "tle_line2": "2 39160  97.9350  54.9494 0001148  84.0637 276.0697 14.64942821674950"
      },
      "geometry": {
        "type": "Point",
        "coordinates": [
          46.45199938444394,
          47.33351639799152
        ]
      }
    }
  ]
}